GLOBALSTAR M023 [+]     
1 25621U 99004A   24093.91981226 -.00000100  00000+0  21988-4 0  9997
2 25621  52.0119 314.0127 0009660 231.6088 143.0292 12.62449793160121
GLOBALSTAR M040 [-]     
1 25622U 99004B   24093.88296339 -.00000057  00000+0  25957-3 0  9998
2 25622  51.9926 317.6333 0001232 113.4598 261.4505 12.61970251159660
GLOBALSTAR M036 [-]     
1 25623U 99004C   24093.88796110 -.00000011  00000+0  10399-2 0  9994
2 25623  51.9983 320.8191 0010809 288.9291  86.1411 11.86566082126717
GLOBALSTAR M038 [-]     
1 25624U 99004D   24093.72911837 -.00000048  00000+0  39098-3 0  9991
2 25624  51.9960 260.0066 0001690 188.2393 185.4071 12.32496114148069
GLOBALSTAR M022 [-]     
1 25649U 99012A   24093.63172172 -.00000045  00000+0  50507-3 0  9993
2 25649  52.0057  48.5076 0002806  21.2422 150.2390 12.02479448123373
GLOBALSTAR M041 [-]     
1 25650U 99012B   24093.85971739 -.00000029  00000+0  72845-3 0  9996
2 25650  52.0008 275.9189 0002629 144.5500 215.5512 11.96657792125567
GLOBALSTAR M046 [-]     
1 25651U 99012C   24093.92860491  .00000039  00000+0  14086-2 0  9999
2 25651  52.0087  13.9071 0002720  88.2345  32.6565 12.09385754130392
GLOBALSTAR M037 [+]     
1 25652U 99012D   24093.75558052 -.00000097  00000+0  39097-4 0  9994
2 25652  51.9993  85.2950 0001701 296.0187 236.0794 12.62400401155641
